NORAD_CAT_ID,OBJECT_NAME,OBJECT_TYPE,EPOCH,MEAN_MOTION,ECCENTRICITY,INCLINATION,RA_OF_ASC_NODE,ARG_OF_PERICENTER,MEAN_ANOMALY,BSTAR,MEAN_MOTION_DOT,MEAN_MOTION_DDOT,TLE_LINE0,TLE_LINE1,TLE_LINE2,SEMIMAJOR_AXIS,PERIOD,APOGEE,PERIGEE,DECAYED
52693.0,STARLINK-3946,PAYLOAD,2022-06-14 06:00:00,15.7320237,0.0002646,53.2159,165.093,14.0222,232.98,-5.0045e-05,-7.641e-05,0.0,0 STARLINK-3946,1 52693U 22053AP  22165.25001157 -.00007641  00000-0 -50045-4 0  9992,2 52693  53.2159 165.0930 0002646  14.0222 232.9800 15.73202370  4542,6727.888000000001,91.533,351.534,347.973,0.0
52693.0,STARLINK-3946,PAYLOAD,2022-06-14 14:00:01,15.73178269,0.0002774,53.2157,163.4433,16.5196,319.4017,-0.00011752,-0.0001706999999999,0.0,0 STARLINK-3946,1 52693U 22053AP  22165.58334491 -.00017070  00000-0 -11752-3 0  9996,2 52693  53.2157 163.4433 0002774  16.5196 319.4017 15.73178269  1300,6727.956999999999,91.534,351.68800000000016,347.956,0.0
52693.0,STARLINK-3946,PAYLOAD,2022-06-14 22:00:00,15.73182677,0.0002608,53.2159,161.7922,23.0099,41.8068,-3.8666e-05,-6.042e-05,0.0,0 STARLINK-3946,1 52693U 22053AP  22165.91667824 -.00006042  00000-0 -38666-4 0  9993,2 52693  53.2159 161.7922 0002608  23.0099  41.8068 15.73182677  4647,6727.945,91.534,351.564,348.055,0.0
52693.0,STARLINK-3946,PAYLOAD,2022-06-15 14:00:01,15.73197558,0.0002831,53.2155,158.4951,24.9828,217.6283,0.00010307,0.00013868,0.0,0 STARLINK-3946,1 52693U 22053AP  22166.58334491  .00013868  00000-0  10307-3 0  9991,2 52693  53.2155 158.4951 0002831  24.9828 217.6283 15.73197558  1302,6727.901999999999,91.533,351.672,347.862,0.0
52693.0,STARLINK-3946,PAYLOAD,2022-06-15 22:00:00,15.73232165,0.0002575,53.216,156.8439,26.8441,304.708,2.0208e-05,2.219e-05,0.0,0 STARLINK-3946,1 52693U 22053AP  22166.91667824  .00002219  00000-0  20208-4 0  9997,2 52693  53.2160 156.8439 0002575  26.8441 304.7080 15.73232165  4803,6727.803000000001,91.531,351.401,347.936,0.0
52693.0,STARLINK-3946,PAYLOAD,2022-06-16 02:00:01,15.73255048,0.0002615,53.2164,156.0201,25.925,170.1181,-0.00023828,-0.00034013,0.0,0 STARLINK-3946,1 52693U 22053AP  22167.08334491 -.00034013  00000-0 -23828-3 0  9996,2 52693  53.2164 156.0201 0002615  25.9250 170.1181 15.73255048  1303,6727.738,91.53,351.36300000000006,347.844,0.0
52693.0,STARLINK-3946,PAYLOAD,2022-06-19 14:00:01,15.73250603,0.0002415,53.216,138.7017,19.5923,210.248,-0.00050897,-0.00071613,0.0,0 STARLINK-3946,1 52693U 22053AP  22170.58334491 -.00071613  00000-0 -50897-3 0  9998,2 52693  53.2160 138.7017 0002415  19.5923 210.2480 15.73250603  1305,6727.751,91.53,351.241,347.991,0.0
52693.0,STARLINK-3946,PAYLOAD,2022-06-19 22:00:00,15.73180324,0.0002222,53.2164,137.0511,19.6635,299.1338,0.00049724,0.0006969,0.0,0 STARLINK-3946,1 52693U 22053AP  22170.91667824  .00069690  00000-0  49724-3 0  9991,2 52693  53.2164 137.0511 0002222  19.6635 299.1338 15.73180324  1307,6727.951,91.534,351.311,348.321,0.0
52693.0,STARLINK-3946,PAYLOAD,2022-06-20 14:00:01,15.73206126,0.0002373,53.2163,133.753,15.3647,121.3041,-0.0006306,-0.00088236,0.0,0 STARLINK-3946,1 52693U 22053AP  22171.58334491 -.00088236  00000-0 -63060-3 0  9994,2 52693  53.2163 133.7530 0002373  15.3647 121.3041 15.73206126  1309,6727.878000000002,91.533,351.339,348.146,0.0
52693.0,STARLINK-3946,PAYLOAD,2022-06-20 22:00:00,15.73158198,0.0002254,53.2163,132.10299999999998,22.1399,203.4209,0.00038812,0.00054107,0.0,0 STARLINK-3946,1 52693U 22053AP  22171.91667824  .00054107  00000-0  38812-3 0  9995,2 52693  53.2163 132.1030 0002254  22.1399 203.4209 15.73158198  5593,6728.014,91.536,351.396,348.36300000000006,0.0
52693.0,STARLINK-3946,PAYLOAD,2022-06-21 06:00:00,15.73205442,0.0002633,53.2175,130.4539,16.3906,298.0228,-1.5834e-05,-2.845e-05,0.0,0 STARLINK-3946,1 52693U 22053AP  22172.25001157 -.00002845  00000-0 -15834-4 0  9998,2 52693  53.2175 130.4539 0002633  16.3906 298.0228 15.73205442  5643,6727.88,91.533,351.516,347.973,0.0
52693.0,STARLINK-3946,PAYLOAD,2022-06-21 14:00:01,15.73249314,0.0002236,53.2155,128.8046,18.0843,25.3477,-0.00042144,-0.00059483,0.0,0 STARLINK-3946,1 52693U 22053AP  22172.58334491 -.00059483  00000-0 -42144-3 0  9997,2 52693  53.2155 128.8046 0002236  18.0843  25.3477 15.73249314  5691,6727.755,91.53,351.124,348.115,0.0
52693.0,STARLINK-3946,PAYLOAD,2022-06-21 22:00:00,15.73244821,0.000217,53.2158,127.1544,21.9581,110.4176,-0.00044084,-0.0006216,0.0,0 STARLINK-3946,1 52693U 22053AP  22172.91667824 -.00062160  00000-0 -44084-3 0  9994,2 52693  53.2158 127.1544 0002170  21.9581 110.4176 15.73244821  1302,6727.767,91.531,351.092,348.172,0.0
52693.0,STARLINK-3946,PAYLOAD,2022-06-22 06:00:00,15.73188435,0.0002439,53.2159,125.5069,20.9405,200.3805,-2.7771e-05,-4.516e-05,0.0,0 STARLINK-3946,1 52693U 22053AP  22173.25001157 -.00004516  00000-0 -27771-4 0  9999,2 52693  53.2159 125.5069 0002439  20.9405 200.3805 15.73188435  5804,6727.928000000001,91.534,351.434,348.152,0.0
52693.0,STARLINK-3946,PAYLOAD,2022-06-22 14:00:01,15.7317283,0.000223,53.2158,123.8558,18.3239,291.9106,7.7735e-05,0.0001029,0.0,0 STARLINK-3946,1 52693U 22053AP  22173.58334491  .00010290  00000-0  77735-4 0  9994,2 52693  53.2158 123.8558 0002230  18.3239 291.9106 15.73172830  1305,6727.973000000001,91.535,351.338,348.337,0.0
52693.0,STARLINK-3946,PAYLOAD,2022-06-22 22:00:00,15.7320538,0.0002181,53.2158,122.2061,21.9209,17.2113,0.00025813,0.00035771,0.0,0 STARLINK-3946,1 52693U 22053AP  22173.91667824  .00035771  00000-0  25813-3 0  9990,2 52693  53.2158 122.2061 0002181  21.9209  17.2113 15.73205380  1303,6727.88,91.533,351.212,348.277,0.0
52693.0,STARLINK-3946,PAYLOAD,2022-06-23 06:00:00,15.73235983,0.0002453,53.2154,120.5584,21.763,106.3278,-0.00014526,-0.00020992,0.0,0 STARLINK-3946,1 52693U 22053AP  22174.25001157 -.00020992  00000-0 -14526-3 0  9999,2 52693  53.2154 120.5584 0002453  21.7630 106.3278 15.73235983  5957,6727.793000000002,91.531,351.30800000000005,348.00699999999995,0.0
52693.0,STARLINK-3946,PAYLOAD,2022-06-23 14:00:01,15.732366699999998,0.000222,53.2152,118.9071,24.5152,192.53,-0.0003898,-0.00055063,0.0,0 STARLINK-3946,1 52693U 22053AP  22174.58334491 -.00055063  00000-0 -38980-3 0  9992,2 52693  53.2152 118.9071 0002220  24.5152 192.5300 15.73236670  1301,6727.791,91.531,351.149,348.162,0.0
52693.0,STARLINK-3946,PAYLOAD,2022-06-23 22:00:00,15.73194367,0.0002079,53.2155,117.2573,23.3349,282.6578,0.00021845,0.00030141,0.0,0 STARLINK-3946,1 52693U 22053AP  22174.91667824  .00030141  00000-0  21845-3 0  9998,2 52693  53.2155 117.2573 0002079  23.3349 282.6578 15.73194367  1304,6727.911,91.534,351.175,348.37800000000016,0.0
52693.0,STARLINK-3946,PAYLOAD,2022-06-24 14:00:01,15.73173142,0.0002101,53.2158,113.9584,16.6774,107.1436,0.00022932,0.00031649,0.0,0 STARLINK-3946,1 52693U 22053AP  22175.58334491  .00031649  00000-0  22932-3 0  9995,2 52693  53.2158 113.9584 0002101  16.6774 107.1436 15.73173142  6166,6727.972,91.535,351.25,348.423,0.0
52693.0,STARLINK-3946,PAYLOAD,2022-06-24 22:00:01,15.73209428,0.0002152,53.2158,112.3091,23.3632,189.423,-0.0004845,-0.00068104,0.0,0 STARLINK-3946,1 52693U 22053AP  22175.91668981 -.00068104  00000-0 -48450-3 0  9997,2 52693  53.2158 112.3091 0002152  23.3632 189.4230 15.73209428  1309,6727.868,91.533,351.181,348.285,0.0
52693.0,STARLINK-3946,PAYLOAD,2022-06-25 06:00:00,15.73136917,0.0002426,53.2153,110.6615,23.6265,278.0082,0.00056668,0.00079455,0.0,0 STARLINK-3946,1 52693U 22053AP  22176.25001157  .00079455  00000-0  56668-3 0  9990,2 52693  53.2153 110.6615 0002426  23.6265 278.0082 15.73136917  6279,6728.075,91.537,351.57199999999995,348.30800000000005,0.0
52693.0,STARLINK-3946,PAYLOAD,2022-06-25 14:00:01,15.73184524,0.0002115,53.2154,109.01,26.0247,4.5119,0.00036869,0.00051408,0.0,0 STARLINK-3946,1 52693U 22053AP  22176.58334491  .00051408  00000-0  36869-3 0  9995,2 52693  53.2154 109.0100 0002115  26.0247   4.5119 15.73184524  1302,6727.939,91.534,351.227,348.381,0.0
52693.0,STARLINK-3946,PAYLOAD,2022-06-25 22:00:00,15.73242822,0.0002111,53.2157,107.3607,27.7648,91.7017,0.00015149,0.00020732,0.0,0 STARLINK-3946,1 52693U 22053AP  22176.91667824  .00020732  00000-0  15149-3 0  9995,2 52693  53.2157 107.3607 0002111  27.7648  91.7017 15.73242822  1308,6727.773,91.531,351.05800000000005,348.218,0.0
52693.0,STARLINK-3946,PAYLOAD,2022-06-26 06:00:00,15.73238493,0.0002267,53.2159,105.7129,20.9336,187.5592,0.00017941,0.00024675,0.0,0 STARLINK-3946,1 52693U 22053AP  22177.25001157  .00024675  00000-0  17941-3 0  9996,2 52693  53.2159 105.7129 0002267  20.9336 187.5592 15.73238493  6432,6727.785,91.531,351.176,348.125,0.0
52693.0,STARLINK-3946,PAYLOAD,2022-06-26 14:00:01,15.73234629,0.0002103,53.2162,104.0613,26.094,271.4615,-5.9179e-05,-8.931e-05,0.0,0 STARLINK-3946,1 52693U 22053AP  22177.58335648 -.00008931  00000-0 -59179-4 0  9996,2 52693  53.2162 104.0613 0002103  26.0940 271.4615 15.73234629  1300,6727.795999999999,91.531,351.076,348.247,0.0
52693.0,STARLINK-3946,PAYLOAD,2022-06-26 20:00:01,15.73247483,0.0002143,53.2163,102.8241,32.077,242.1154,-0.00043074,-0.00060767,0.0,0 STARLINK-3946,1 52693U 22053AP  22177.83334491 -.00060767  00000-0 -43074-3 0  9990,2 52693  53.2163 102.8241 0002143  32.0770 242.1154 15.73247483  6520,6727.76,91.53,351.06699999999995,348.18300000000005,0.0
52693.0,STARLINK-3946,PAYLOAD,2022-06-26 22:00:00,15.7325184,0.0002221,53.2162,102.4123,31.4665,354.9653,-0.00063621,-0.00089177,0.0,0 STARLINK-3946,1 52693U 22053AP  22177.91667824 -.00089177  00000-0 -63621-3 0  9994,2 52693  53.2162 102.4123 0002221  31.4665 354.9653 15.73251840  1306,6727.746999999999,91.53,351.107,348.11800000000005,0.0
52693.0,STARLINK-3946,PAYLOAD,2022-06-27 14:00:01,15.73138519,0.0002052,53.2157,99.1129,29.0174,175.2663,0.00049894,0.00069805,0.0,0 STARLINK-3946,1 52693U 22053AP  22178.58334491  .00069805  00000-0  49894-3 0  9999,2 52693  53.2157  99.1129 0002052  29.0174 175.2663 15.73138519  1300,6728.07,91.537,351.316,348.555,0.0
